{
    "links": {
        "self": "http://www.neowsapp.com/rest/v1/neo/54054686?api_key=iIulBulltgU6a56xZRHN4H3l9WmuAYTsLGpBGhQ2"
    },
    "id": "54054686",
    "neo_reference_id": "54054686",
    "name": "(2020 SU5)",
    "designation": "2020 SU5",
    "nasa_jpl_url": "http://ssd.jpl.nasa.gov/sbdb.cgi?sstr=54054686",
    "absolute_magnitude_h": 26.795,
    "estimated_diameter": {
        "kilometers": {
            "estimated_diameter_min": 0.0116293376,
            "estimated_diameter_max": 0.0260039893
        },
        "meters": {
            "estimated_diameter_min": 11.6293375551,
            "estimated_diameter_max": 26.0039893065
        },
        "miles": {
            "estimated_diameter_min": 0.0072261331,
            "estimated_diameter_max": 0.0161581248
        },
        "feet": {
            "estimated_diameter_min": 38.1539958243,
            "estimated_diameter_max": 85.3149282764
        }
    },
    "is_potentially_hazardous_asteroid": false,
    "close_approach_data": [
        {
            "close_approach_date": "2020-10-01",
            "close_approach_date_full": "2020-Oct-01 03:15",
            "epoch_date_close_approach": 1601522100000,
            "relative_velocity": {
                "kilometers_per_second": "9.4071078036",
                "kilometers_per_hour": "33865.5880930856",
                "miles_per_hour": "21042.7594459509"
            },
            "miss_distance": {
                "astronomical": "0.0139188545",
                "lunar": "5.4144344005",
                "kilometers": "2082230.986039915",
                "miles": "1293838.338644227"
            },
            "orbiting_body": "Earth"
        }
    ],
    "orbital_data": {
        "orbit_id": "1",
        "orbit_determination_date": "2020-09-27 17:42:07",
        "first_observation_date": "2020-09-26",
        "last_observation_date": "2020-09-27",
        "data_arc_in_days": 1,
        "observations_used": 21,
        "orbit_uncertainty": "8",
        "minimum_orbit_intersection": ".0114272",
        "jupiter_tisserand_invariant": "3.323",
        "epoch_osculation": "2459119.5",
        "eccentricity": ".5733628888363815",
        "semi_major_axis": "2.324738043788001",
        "inclination": "8.004810815121035",
        "ascending_node_longitude": "187.4549682405075",
        "orbital_period": "1294.671122046024",
        "perihelion_distance": ".9918195232138745",
        "perihelion_argument": "200.7093015051512",
        "aphelion_distance": "3.657656564362128",
        "perihelion_time": "2459139.588171712490",
        "mean_anomaly": "354.414224822542",
        "mean_motion": ".278062894792213",
        "equinox": "J2000",
        "orbit_class": {
            "orbit_class_type": "APO",
            "orbit_class_description": "Near-Earth asteroid orbits which cross the Earth’s orbit similar to that of 1862 Apollo",
            "orbit_class_range": "a (semi-major axis) > 1.0 AU; q (perihelion) < 1.017 AU"
        }
    },
    "is_sentry_object": false
}